{
  "type": "FeatureCollection",
  "features": [
    {
      "type": "Feature",
      "properties": {
        "norad_id": 32101,
        "name": "FENGYUN 1C DEB",
        "group": "fengyun-1c-debris",
        "lat": -73.73613454173038,
        "lon": -87.69765860221872,
        "alt_km": 816.2328149707037,
        "timestamp": "2025-12-06T03:35:02.156871+00:00",
        "meta_object_name": "FENGYUN 1C DEB",
        "meta_object_id": "1999-025CQT",
        "meta_epoch": "2025-12-04T10:49:31.554624",
        "meta_mean_motion": 14.01570049,
        "meta_eccentricity": 0.0121512,
        "meta_inclination": 99.0303,
        "meta_ra_of_asc_node": 237.5899,
        "meta_arg_of_pericenter": 261.9423,
        "meta_mean_anomaly": 96.7941,
        "meta_ephemeris_type": 0,
        "meta_classification_type": "U",
        "meta_norad_cat_id": 32101,
        "meta_element_set_no": 999,
        "meta_rev_at_epoch": 93066,
        "meta_bstar": 0.0045844,
        "meta_mean_motion_dot": 7.36e-05,
        "meta_mean_motion_ddot": 0,
        "tle_line1": "1 32101U 99025CQT 25338.45105966  .00007360  00000+0  45844-2 0  9991",
        "tle_line2": "2 32101  99.0303 237.5899 0121512 261.9423  96.7941 14.01570049930666"
      },
      "geometry": {
        "type": "Point",
        "coordinates": [
          -87.69765860221872,
          -73.73613454173038
        ]
      }
    },
    {
      "type": "Feature",
      "properties": {
        "norad_id": 32105,
        "name": "FENGYUN 1C DEB",
        "group": "fengyun-1c-debris",
        "lat": -61.32039083191136,
        "lon": 123.50888224450247,
        "alt_km": 1381.3539149057642,
        "timestamp": "2025-12-06T03:35:02.156882+00:00",
        "meta_object_name": "FENGYUN 1C DEB",
        "meta_object_id": "1999-025CQX",
        "meta_epoch": "2025-12-02T19:34:22.008000",
        "meta_mean_motion": 13.40202446,
        "meta_eccentricity": 0.03938261,
        "meta_inclination": 103.4621,
        "meta_ra_of_asc_node": 325.0549,
        "meta_arg_of_pericenter": 95.9408,
        "meta_mean_anomaly": 268.6726,
        "meta_ephemeris_type": 0,
        "meta_classification_type": "U",
        "meta_norad_cat_id": 32105,
        "meta_element_set_no": 999,
        "meta_rev_at_epoch": 59578,
        "meta_bstar": 0.0030920356,
        "meta_mean_motion_dot": 2.593e-05,
        "meta_mean_motion_ddot": 0,
        "tle_line1": "1 32105U 99025CQX 25336.81553250  .00002593  00000+0  30920-2 0  9998",
        "tle_line2": "2 32105 103.4621 325.0549 0393826  95.9408 268.6726 13.40202446595781"
      },
      "geometry": {
        "type": "Point",
        "coordinates": [
          123.50888224450247,
          -61.32039083191136
        ]
      }
    },
    {
      "type": "Feature",
      "properties": {
        "norad_id": 32106,
        "name": "FENGYUN 1C DEB",
        "group": "fengyun-1c-debris",
        "lat": -73.37639782639407,
        "lon": -7.6766999197618375,
        "alt_km": 866.9757354965823,
        "timestamp": "2025-12-06T03:35:02.156893+00:00",
        "meta_object_name": "FENGYUN 1C DEB",
        "meta_object_id": "1999-025CQY",
        "meta_epoch": "2025-12-01T04:26:59.805888",
        "meta_mean_motion": 14.26624695,
        "meta_eccentricity": 0.01094883,
        "meta_inclination": 101.4616,
        "meta_ra_of_asc_node": 303.0332,
        "meta_arg_of_pericenter": 72.2765,
        "meta_mean_anomaly": 289.032,
        "meta_ephemeris_type": 0,
        "meta_classification_type": "U",
        "meta_norad_cat_id": 32106,
        "meta_element_set_no": 999,
        "meta_rev_at_epoch": 69227,
        "meta_bstar": 0.0038557998,
        "meta_mean_motion_dot": 9.872e-05,
        "meta_mean_motion_ddot": 0,
        "tle_line1": "1 32106U 99025CQY 25335.18541442  .00009872  00000+0  38558-2 0  9990",
        "tle_line2": "2 32106 101.4616 303.0332 0109488  72.2765 289.0320 14.26624695692271"
      },
      "geometry": {
        "type": "Point",
        "coordinates": [
          -7.6766999197618375,
          -73.37639782639407
        ]
      }
    },
    {
      "type": "Feature",
      "properties": {
        "norad_id": 32109,
        "name": "FENGYUN 1C DEB",
        "group": "fengyun-1c-debris",
        "lat": -81.4308560181139,
        "lon": -37.46551507057647,
        "alt_km": 718.5728069644438,
        "timestamp": "2025-12-06T03:35:02.156903+00:00",
        "meta_object_name": "FENGYUN 1C DEB",
        "meta_object_id": "1999-025CRB",
        "meta_epoch": "2025-11-27T22:22:45.612768",
        "meta_mean_motion": 14.3384742,
        "meta_eccentricity": 0.0206758,
        "meta_inclination": 98.3601,
        "meta_ra_of_asc_node": 211.977,
        "meta_arg_of_pericenter": 356.4894,
        "meta_mean_anomaly": 3.4829,
        "meta_ephemeris_type": 0,
        "meta_classification_type": "U",
        "meta_norad_cat_id": 32109,
        "meta_element_set_no": 999,
        "meta_rev_at_epoch": 64676,
        "meta_bstar": 0.00064211,
        "meta_mean_motion_dot": 2.222e-05,
        "meta_mean_motion_ddot": 0,
        "tle_line1": "1 32109U 99025CRB 25331.93247237  .00002222  00000+0  64211-3 0  9995",
        "tle_line2": "2 32109  98.3601 211.9770 0206758 356.4894   3.4829 14.33847420646769"
      },
      "geometry": {
        "type": "Point",
        "coordinates": [
          -37.46551507057647,
          -81.4308560181139
        ]
      }
    },
    {
      "type": "Feature",
      "properties": {
        "norad_id": 32110,
        "name": "FENGYUN 1C DEB",
        "group": "fengyun-1c-debris",
        "lat": 51.272365026712976,
        "lon": 136.6172817530971,
        "alt_km": 769.5339979031805,
        "timestamp": "2025-12-06T03:35:02.156913+00:00",
        "meta_object_name": "FENGYUN 1C DEB",
        "meta_object_id": "1999-025CRC",
        "meta_epoch": "2025-12-02T10:24:15.105024",
        "meta_mean_motion": 14.28773451,
        "meta_eccentricity": 0.00331718,
        "meta_inclination": 99.5432,
        "meta_ra_of_asc_node": 144.6648,
        "meta_arg_of_pericenter": 36.7876,
        "meta_mean_anomaly": 353.0914,
        "meta_ephemeris_type": 0,
        "meta_classification_type": "U",
        "meta_norad_cat_id": 32110,
        "meta_element_set_no": 999,
        "meta_rev_at_epoch": 64241,
        "meta_bstar": 0.0019198872,
        "meta_mean_motion_dot": 4.816e-05,
        "meta_mean_motion_ddot": 0,
        "tle_line1": "1 32110U 99025CRC 25336.43350816  .00004816  00000+0  19199-2 0  9990",
        "tle_line2": "2 32110  99.5432 144.6648 0033171  36.7876 353.0914 14.28773451642410"
      },
      "geometry": {
        "type": "Point",
        "coordinates": [
          136.6172817530971,
          51.272365026712976
        ]
      }
    },
    {
      "type": "Feature",
      "properties": {
        "norad_id": 32111,
        "name": "FENGYUN 1C DEB",
        "group": "fengyun-1c-debris",
        "lat": -9.126460843795925,
        "lon": -18.57257596326817,
        "alt_km": 840.6777460897429,
        "timestamp": "2025-12-06T03:35:02.156924+00:00",
        "meta_object_name": "FENGYUN 1C DEB",
        "meta_object_id": "1999-025CRD",
        "meta_epoch": "2025-12-04T06:25:34.153824",
        "meta_mean_motion": 14.31530075,
        "meta_eccentricity": 0.0119336,
        "meta_inclination": 98.4436,
        "meta_ra_of_asc_node": 338.23,
        "meta_arg_of_pericenter": 230.1016,
        "meta_mean_anomaly": 148.5265,
        "meta_ephemeris_type": 0,
        "meta_classification_type": "U",
        "meta_norad_cat_id": 32111,
        "meta_element_set_no": 999,
        "meta_rev_at_epoch": 95910,
        "meta_bstar": 0.00040928,
        "meta_mean_motion_dot": 1.132e-05,
        "meta_mean_motion_ddot": 0,
        "tle_line1": "1 32111U 99025CRD 25338.26775641  .00001132  00000+0  40928-3 0  9994",
        "tle_line2": "2 32111  98.4436 338.2300 0119336 230.1016 148.5265 14.31530075959103"
      },
      "geometry": {
        "type": "Point",
        "coordinates": [
          -18.57257596326817,
          -9.126460843795925
        ]
      }
    },
    {
      "type": "Feature",
      "properties": {
        "norad_id": 32113,
        "name": "FENGYUN 1C DEB",
        "group": "fengyun-1c-debris",
        "lat": 28.99725317025321,
        "lon": 10.008834839267806,
        "alt_km": 1051.5218176352646,
        "timestamp": "2025-12-06T03:35:02.156935+00:00",
        "meta_object_name": "FENGYUN 1C DEB",
        "meta_object_id": "1999-025CRF",
        "meta_epoch": "2025-12-03T20:20:09.726720",
        "meta_mean_motion": 13.94518389,
        "meta_eccentricity": 0.0237724,
        "meta_inclination": 99.0277,
        "meta_ra_of_asc_node": 12.8111,
        "meta_arg_of_pericenter": 251.0269,
        "meta_mean_anomaly": 106.4996,
        "meta_ephemeris_type": 0,
        "meta_classification_type": "U",
        "meta_norad_cat_id": 32113,
        "meta_element_set_no": 999,
        "meta_rev_at_epoch": 62762,
        "meta_bstar": 0.0013246,
        "meta_mean_motion_dot": 2.191e-05,
        "meta_mean_motion_ddot": 0,
        "tle_line1": "1 32113U 99025CRF 25337.84733480  .00002191  00000+0  13246-2 0  9992",
        "tle_line2": "2 32113  99.0277  12.8111 0237724 251.0269 106.4996 13.94518389627629"
      },
      "geometry": {
        "type": "Point",
        "coordinates": [
          10.008834839267806,
          28.99725317025321
        ]
      }
    }
  ]
}